{"spkid": "50836913", "covariance": {"epoch": "2458852.5", "labels": ["e", "q", "tp", "node", "peri", "i"], "elements": [{"units": null, "value": ".4458344323535386", "title": "eccentricity", "name": "e", "sigma": 4.82930068713449e-07, "label": "e"}, {"label": "q", "title": "perihelion distance", "value": ".8796658837626579", "units": "au", "name": "q", "sigma": 7.6380183541506e-07}, {"label": "tp", "title": "time of perihelion passage", "value": "2458515.350284119428", "units": "TDB", "name": "tp", "sigma": 0.000269208679520365}, {"label": "node", "name": "om", "sigma": 6.69304327730066e-05, "value": "264.3067412824714", "title": "longitude of the ascending node", "units": "deg"}, {"label": "peri", "title": "argument of perihelion", "value": "237.7886156643597", "units": "deg", "name": "w", "sigma": 0.000342908269450694}, {"label": "i", "title": "inclination", "value": "2.997355377908798", "units": "deg", "name": "i", "sigma": 6.72500910679735e-05}], "data": [["2.332214512675768E-13", "-3.688583889524885E-13", "9.554858384721866E-11", "-1.154733913179411E-11", "1.324567080750411E-10", "1.819827481060015E-11"], ["-3.688583889524885E-13", "5.833932437834137E-13", "-1.505848133663582E-10", "1.814360036161788E-11", "-2.08893426653131E-10", "-2.863031280782785E-11"], ["9.554858384721866E-11", "-1.505848133663582E-10", "7.247331312909879E-8", "-1.139983450450347E-8", "9.067315384105886E-8", "1.649841569569515E-8"], ["-1.154733913179411E-11", "1.814360036161788E-11", "-1.139983450450347E-8", "4.479682831181956E-9", "-1.642259139589119E-8", "-3.857051410088867E-9"], ["1.324567080750411E-10", "-2.08893426653131E-10", "9.067315384105886E-8", "-1.642259139589119E-8", "1.175860812576697E-7", "2.136361450866091E-8"], ["1.819827481060015E-11", "-2.863031280782785E-11", "1.649841569569515E-8", "-3.857051410088867E-9", "2.136361450866091E-8", "4.522574748650734E-9"]]}, "elements": [{"label": "e", "name": "e", "sigma": "4.5092E-7", "units": null, "value": ".4471651872998452", "title": "eccentricity"}, {"sigma": "1.7758E-7", "name": "a", "value": "1.592974466786617", "title": "semi-major axis", "units": "au", "label": "a"}, {"label": "q", "units": "au", "title": "perihelion distance", "value": ".8806517409821083", "sigma": "7.769E-7", "name": "q"}, {"label": "i", "title": "inclination; angle with respect to x-y ecliptic plane", "value": "2.94918817170116", "units": "deg", "sigma": "6.8899E-5", "name": "i"}, {"units": "deg", "value": "263.9172262759869", "title": "longitude of the ascending node", "sigma": "6.2324E-5", "name": "om", "label": "node"}, {"label": "peri", "sigma": ".00034473", "name": "w", "value": "237.8833380468373", "title": "argument of perihelion", "units": "deg"}, {"label": "M", "title": "mean anomaly", "value": "238.7289511420593", "units": "deg", "sigma": "6.1923E-5", "name": "ma"}, {"label": "tp", "sigma": ".00016317", "name": "tp", "units": "TDB", "value": "2461447.880966478665", "title": "time of perihelion passage"}, {"name": "per", "sigma": ".0001228", "units": "d", "title": "sidereal orbital period", "value": "734.3644569005321", "label": "period"}, {"name": "n", "sigma": "8.1974E-8", "title": "mean motion", "value": ".4902198038279529", "units": "deg/d", "label": "n"}, {"sigma": "2.5699E-7", "name": "ad", "title": "aphelion distance", "value": "2.305297192591126", "units": "au", "label": "Q"}], "epoch": "2461200.5"}